[{"no":1,"club":"88 CC","hole":36,"Par":null,"yards":null,"homePage":"https://www.88countryclub.co.kr","tel1":"031-287-8811","tel2":"031-679-9818","zone":1,"province":"경기도","address":"용인시 기흥구 석성로521번길 169","zip":16893,"latitude":37.3025708,"longitude":127.162336},
{"no":2,"club":"가야 CC","hole":45,"Par":null,"yards":null,"homePage":"https://www.gayacc.com","tel1":"055-337-0091","tel2":"","zone":5,"province":"경상남도","address":"김해시 인제로 502","zip":50811,"latitude":35.2739318,"longitude":128.8993664},
{"no":3,"club":"가평베네스트 GC","hole":27,"Par":null,"yards":null,"homePage":"https://www.golfsamsung.com","tel1":"031-589-8000","tel2":"031-589-8001~6","zone":1,"province":"경기도","address":"가평군 상면 둔덕말길 232","zip":12443,"latitude":37.8001049,"longitude":127.3067642},
{"no":4,"club":"강화 웰빙 CC","hole":9,"Par":null,"yards":null,"homePage":"https://www.gakorea.com","tel1":"032-933-1010","tel2":"","zone":1,"province":"인천광역시 ","address":"강화군 길상면 해안남로 392","zip":23051,"latitude":37.6028489,"longitude":126.5100458},
{"no":5,"club":"고성노벨 CC","hole":27,"Par":null,"yards":null,"homePage":"https://www.nobelcc.co.kr","tel1":"055-670-8000","tel2":"","zone":5,"province":"경상남도","address":"고성군 회화면 회진로 567","zip":52916,"latitude":35.0698152,"longitude":128.4053009},
{"no":6,"club":"곤지암 GC","hole":18,"Par":null,"yards":null,"homePage":"https://www.konjiamgolfclub.co.kr","tel1":"031-760-3555","tel2":"031-760-3556","zone":1,"province":"경기도","address":"광주시 도척면 도척윗로 280","zip":12809,"latitude":37.3319864,"longitude":127.3031292},
{"no":7,"club":"골드 CC","hole":18,"Par":null,"yards":null,"homePage":"https://www.gakorea.com","tel1":"031-334-7111","tel2":"031-334-7112~5","zone":1,"province":"경기도","address":"용인시 기흥구 기흥단지로 398","zip":17087,"latitude":37.2169109,"longitude":127.1369537},
{"no":8,"club":"골드레이크 CC","hole":36,"Par":null,"yards":null,"homePage":"https://www.goldlake.co.kr","tel1":"061-339-3000","tel2":"","zone":4,"province":"전라남도","address":"나주시 남평읍 나주호로 442-129","zip":58231,"latitude":34.9579494,"longitude":126.8755342},
{"no":9,"club":"골든베이 Golf&Resort","hole":27,"Par":null,"yards":null,"homePage":"https://www.goldenbay.kr/","tel1":"041-671-8000","tel2":"","zone":3,"province":"충청남도","address":"태안군 근흥면 정산포로 217","zip":32131,"latitude":36.7108878,"longitude":126.1721069},
{"no":10,"club":"골프존카운티 선산","hole":18,"Par":null,"yards":null,"homePage":"https://sunsan.golfzoncounty.com/","tel1":"054-473-6200","tel2":"","zone":5,"province":"경상북도","address":"구미시 산동읍 임천인덕로 287-21","zip":39164,"latitude":36.1595046,"longitude":128.4503355},
{"no":11,"club":"골프존카운티 선운","hole":18,"Par":null,"yards":null,"homePage":"https://www.golfzoncounty.com/gcounty/info/main?cc_code=39","tel1":"063-560-2000","tel2":"","zone":4,"province":"전라북도","address":"고창군 아산면 운곡로 418","zip":56452,"latitude":35.4917326,"longitude":126.6448228},
{"no":12,"club":"군산 CC","hole":81,"Par":null,"yards":null,"homePage":"https://www.gunsancc.net","tel1":"063-472-3300","tel2":"","zone":4,"province":"전라북도","address":"군산시 옥서면 남군산로 1685","zip":54170,"latitude":35.8919428,"longitude":126.6597854},
{"no":13,"club":"그랜드 CC","hole":27,"Par":null,"yards":null,"homePage":"https://www.grandgolf.co.kr","tel1":"043-212-7111","tel2":"","zone":3,"province":"충청북도","address":"청주시 청원구 오창읍 꽃화산길 51-20","zip":28106,"latitude":36.7215027,"longitude":127.3871236},
{"no":14,"club":"글렌로스 GC","hole":9,"Par":null,"yards":null,"homePage":"https://www.golfsamsung.com","tel1":"031-320-9601","tel2":"","zone":1,"province":"경기도","address":"용인시 처인구 포곡읍 에버랜드로562번길 69","zip":17021,"latitude":37.2943022,"longitude":127.1840975},
{"no":15,"club":"김포 SEASIDE CC","hole":18,"Par":null,"yards":null,"homePage":"https://www.gimpocc.co.kr","tel1":"031-987-9992","tel2":"031-987-9993","zone":1,"province":"경기도","address":"김포시 월곶면 김포대로2801번길 219","zip":10024,"latitude":37.7047202,"longitude":126.5441295},
{"no":16,"club":"김해상록 GC","hole":18,"Par":null,"yards":null,"homePage":"https://www.sangnokresort.co.kr","tel1":"055-340-1400","tel2":"","zone":5,"province":"경상남도","address":"김해시 한림면 김해대로 974번길 198","zip":50850,"latitude":35.2739614,"longitude":128.7952679},
{"no":17,"club":"남부 CC","hole":18,"Par":null,"yards":null,"homePage":"http://www.namboocc.co.kr","tel1":"031-280-4100","tel2":"","zone":1,"province":"경기도","address":"용인시 기흥구 사은로 163","zip":17071,"latitude":37.2648753,"longitude":127.1257406},
{"no":18,"club":"남서울 CC","hole":18,"Par":null,"yards":null,"homePage":"https://www.nscc.co.kr","tel1":"031-709-6000","tel2":"","zone":1,"province":"경기도","address":"성남시 분당구 판교백현로 161","zip":13541,"latitude":37.3817595,"longitude":127.0822731},
{"no":19,"club":"남여주 GC","hole":18,"Par":null,"yards":null,"homePage":"https://www.namyeoju.co.kr","tel1":"031-880-6700","tel2":"","zone":1,"province":"경기도","address":"여주시 가여로 532","zip":12658,"latitude":37.228068,"longitude":127.627438},
{"no":20,"club":"남원상록 GC","hole":18,"Par":null,"yards":null,"homePage":"https://www.sangnokresort.co.kr","tel1":"063-630-1300","tel2":"","zone":4,"province":"전라북도","address":"남원시 대산면 월계길 11","zip":55780,"latitude":35.4171619,"longitude":127.2971051},
{"no":21,"club":"남촌 GC","hole":18,"Par":null,"yards":null,"homePage":"https://www.namchoncc.co.kr","tel1":"031-769-0333","tel2":"","zone":1,"province":"경기도","address":"광주시 곤지암읍 부항길 135-38","zip":12725,"latitude":37.3484863,"longitude":127.4161976},
{"no":22,"club":"뉴서울 CC","hole":18,"Par":null,"yards":null,"homePage":"https://www.newseoulgolf.co.kr","tel1":"031-762-5672","tel2":"031-762-5673~5","zone":1,"province":"경기도","address":"광주시 삼지곡길 95","zip":12767,"latitude":37.4237899,"longitude":127.2095021},
{"no":23,"club":"뉴코리아 CC","hole":18,"Par":null,"yards":null,"homePage":"https://www.newkoreacc.co.kr","tel1":"02-353-0091","tel2":"02-385-8080","zone":1,"province":"경기도","address":"고양시 덕양구 신원2로 57","zip":10566,"latitude":37.6643651,"longitude":126.8788034},
{"no":24,"club":"대구 CC","hole":27,"Par":null,"yards":null,"homePage":"https://www.daegucc.co.kr","tel1":"053-854-0002","tel2":"","zone":5,"province":"경상북도","address":"경산시 진량읍 일연로 718-42","zip":38488,"latitude":35.8668213,"longitude":128.811934},
{"no":25,"club":"더플레이어스 GC","hole":27,"Par":null,"yards":null,"homePage":"https://www.playersgc.com","tel1":"033-250-5000","tel2":"","zone":2,"province":"강원도","address":"춘천시 동산면 새술막길 438","zip":24409,"latitude":37.777543,"longitude":127.7507189},
{"no":26,"club":"도고 CC","hole":18,"Par":null,"yards":null,"homePage":"https://www.dogocc.co.kr","tel1":"041-542-4411","tel2":"","zone":3,"province":"충청남도","address":"아산시 선장면 삼봉산길 188","zip":31545,"latitude":36.7784004,"longitude":126.8922899},
{"no":27,"club":"동래베네스트 GC","hole":18,"Par":null,"yards":null,"homePage":"https://www.golfsamsung.com","tel1":"051-580-0313","tel2":"","zone":5,"province":"부산광역시","address":"금정구 하정로 66","zip":46212,"latitude":35.2619496,"longitude":129.0996376},
{"no":28,"club":"동원썬밸리 CC","hole":18,"Par":null,"yards":null,"homePage":"https://www.sunvalley.co.kr","tel1":"033-344-5308","tel2":"","zone":2,"province":"강원도","address":"횡성군 서원면 서원서로 339번길 90","zip":25202,"latitude":37.4825922,"longitude":127.7897291},
{"no":29,"club":"드림파크 CC","hole":36,"Par":null,"yards":null,"homePage":"https://www.dreamparkcc.or.kr","tel1":"032-560-1700","tel2":"","zone":1,"province":"인천광역시","address":"서구 자원순환로 260번길 46","zip":22688,"latitude":37.5769604,"longitude":126.6361462},
{"no":30,"club":"라데나 GC","hole":27,"Par":null,"yards":null,"homePage":"https://www.ladena.co.kr","tel1":"033-260-1114","tel2":"","zone":2,"province":"강원도","address":"춘천시 신동면 칠전동길 72","zip":24412,"latitude":37.8406154,"longitude":127.7200375},
{"no":31,"club":"라비에벨 Golf&Resort","hole":36,"Par":null,"yards":null,"homePage":"https://www.lavieestbellegolfnresort.com","tel1":"033-245-7000","tel2":"033-245-7100","zone":2,"province":"강원도","address":"춘천시 동산면 종자리로 436","zip":24410,"latitude":37.7420334,"longitude":127.7624304},
{"no":32,"club":"라카이 샌드파인 GC","hole":18,"Par":null,"yards":null,"homePage":"https://lakaisandpine.co.kr","tel1":"033-655-7000","tel2":"","zone":2,"province":"강원도","address":"강릉시 해안로 536 ","zip":25460,"latitude":37.7993287,"longitude":128.8820156},
{"no":33,"club":"레이크사이드 CC","hole":18,"Par":null,"yards":null,"homePage":"https://www.lakeside.kr","tel1":"031-334-2111","tel2":"031-334-2112~9","zone":1,"province":"경기도","address":"용인시 처인구 모현읍 능원로 181","zip":16887,"latitude":37.3176107,"longitude":127.1746729},
{"no":34,"club":"레이크우드 CC","hole":36,"Par":null,"yards":null,"homePage":"https://lakewood.co.kr","tel1":"031-820-1500","tel2":"031-820-1533","zone":1,"province":"경기도","address":"양주시 만송로 244","zip":11494,"latitude":37.7818718,"longitude":127.0889978},
{"no":35,"club":"레인보우힐스 CC","hole":27,"Par":null,"yards":null,"homePage":"https://www.rainbowhills.co.kr","tel1":"043-879-7950","tel2":"043-879-7900","zone":3,"province":"충청북도","address":"음성군 생극면 차생로 168","zip":27617,"latitude":37.0274627,"longitude":127.649454},
{"no":36,"club":"롯데스카이힐 제주 CC","hole":36,"Par":null,"yards":null,"homePage":"https://www.lotteskyhill.com","tel1":"064-731-2000","tel2":"","zone":6,"province":"제주특별자치도","address":"서귀포시 상예로 530","zip":63549,"latitude":33.2872525,"longitude":126.4053086},
{"no":37,"club":"루나엑스 CC","hole":24,"Par":null,"yards":null,"homePage":"https://luna-x.cc","tel1":"1899-1888","tel2":"054-779-9500","zone":5,"province":"경상북도","address":"경주시 천북면 천강로 412-299","zip":38114,"latitude":35.91047,"longitude":129.3144497},
{"no":38,"club":"마우나오션 CC","hole":27,"Par":null,"yards":null,"homePage":"https://www.mauna.co.kr","tel1":"054-740-0678","tel2":"054-771-0900","zone":5,"province":"경상북도","address":"경주시 양남면 동남로 982","zip":38221,"latitude":35.6842798,"longitude":129.372388},
{"no":39,"club":"무안 CC","hole":54,"Par":null,"yards":null,"homePage":"http://www.muangc.co.kr","tel1":"061-450-9000","tel2":"","zone":2,"province":"전라남도","address":"무안군 청계면 서호로 162","zip":58540,"latitude":34.966474,"longitude":126.4074362},
{"no":40,"club":"베스트밸리 GC","hole":9,"Par":null,"yards":null,"homePage":"https://www.bestvalleygc.com","tel1":"031-950-7777","tel2":"","zone":1,"province":"경기도","address":"파주시 광탄면 장지산로200번길 32-41","zip":10954,"latitude":37.7551411,"longitude":126.8847772},
{"no":41,"club":"베어크리크 춘천 GC","hole":18,"Par":null,"yards":null,"homePage":"https://www.bearcreek.co.kr","tel1":"1899-0115","tel2":"031-539-5700","zone":1,"province":"경기도","address":"춘천시 신동면 김유정로 730","zip":24411,"latitude":37.7696861,"longitude":127.7198306},
{"no":42,"club":"베어크리크 포천 GC","hole":36,"Par":null,"yards":null,"homePage":"https://www.bearcreek.co.kr","tel1":"1899-0115","tel2":"031-539-5700","zone":1,"province":"경기도","address":"포천시 화현면 달인동로 35","zip":11124,"latitude":37.9107479,"longitude":127.288278},
{"no":43,"club":"보라 CC","hole":18,"Par":null,"yards":null,"homePage":"https://www.boracc.com","tel1":"052-255-1000","tel2":"","zone":5,"province":"울산시","address":"울주군 삼동면 삼동로 404","zip":44956,"latitude":35.495384,"longitude":129.133866},
{"no":44,"club":"부산 CC","hole":18,"Par":null,"yards":null,"homePage":"http://www.bscc.co.kr","tel1":"051-509-0707","tel2":"","zone":5,"province":"부산광역시","address":"금정구 중앙대로 2327번길 112","zip":46202,"latitude":35.29795,"longitude":129.0919889},
{"no":45,"club":"부영 CC","hole":27,"Par":null,"yards":null,"homePage":"http://www.booyoungcc.co.kr","tel1":"064-766-5500","tel2":"","zone":6,"province":"제주특별자치도","address":"서귀포시 남원읍 남조로 960","zip":63615,"latitude":33.360372,"longitude":126.7159296},
{"no":46,"club":"블랙스톤 이천 CC","hole":27,"Par":null,"yards":null,"homePage":"https://www.blackstoneresort.com","tel1":"031-643-2000","tel2":"","zone":1,"province":"경기도","address":"이천시 장호원읍 장여로 459-160 ","zip":17414,"latitude":37.1661552,"longitude":127.6160766},
{"no":47,"club":"블랙스톤 제주 Golf&Resort","hole":27,"Par":null,"yards":null,"homePage":"https://www.blackstoneresort.com","tel1":"064-795-2121","tel2":"","zone":6,"province":"제주특별자치도","address":"제주시 한림읍 한창로 925-122","zip":63020,"latitude":33.3370373,"longitude":126.3105231},
{"no":48,"club":"블루원 디아너스 CC","hole":27,"Par":null,"yards":null,"homePage":"https://gj.blueone.com","tel1":"1899-1888","tel2":"","zone":5,"province":"경상북도","address":"경주시 보불로 391","zip":38118,"latitude":35.822763,"longitude":129.2952661},
{"no":49,"club":"블루원 상주 CC","hole":18,"Par":null,"yards":null,"homePage":"https://sj.blueone.com","tel1":"1899-1888","tel2":"","zone":5,"province":"경상북도","address":"상주시 모서면 화현3길 127","zip":37275,"latitude":36.3359166,"longitude":127.9418609},
{"no":50,"club":"블루원 용인 CC","hole":18,"Par":null,"yards":null,"homePage":"https://yi.blueone.com","tel1":"1899-1888","tel2":"","zone":1,"province":"경기도","address":"용인시 처인구 원삼면 보개원삼로1534번길 40","zip":17170,"latitude":37.1288303,"longitude":127.3240018},
{"no":51,"club":"비에이비스타 CC","hole":54,"Par":null,"yards":null,"homePage":"https://www.bavista.co.kr","tel1":"031-636-3577","tel2":"","zone":1,"province":"경기도","address":"이천시 모가면 어농로 272","zip":17406,"latitude":37.1806034,"longitude":127.4168869},
{"no":52,"club":"서산수 Golf&Resort","hole":18,"Par":null,"yards":null,"homePage":"http://seosansoo.com","tel1":"041-689-7700","tel2":"041-689-7777","zone":3,"province":"충청남도","address":"서산시 대산읍 삼길포7로 6","zip":31904,"latitude":36.9906977,"longitude":126.4452044},
{"no":53,"club":"서울 CC","hole":36,"Par":null,"yards":null,"homePage":"https://www.seoulcc.co.kr","tel1":"031-960-6900","tel2":"031-969-0810","zone":1,"province":"경기도","address":"고양시 덕양구 고양대로1643번길 164","zip":10293,"latitude":37.6572142,"longitude":126.8551443},
{"no":54,"club":"서원밸리 CC","hole":18,"Par":null,"yards":null,"homePage":"https://www.seowongolf.co.kr","tel1":"031-940-9400","tel2":"","zone":1,"province":"경기도","address":"파주시 광탄면 서원길 333","zip":10830,"latitude":37.8225229,"longitude":126.8902368},
{"no":55,"club":"서원힐스 CC","hole":27,"Par":null,"yards":null,"homePage":"https://www.seowongolf.co.kr","tel1":"031-940-9400","tel2":"","zone":1,"province":"경기도","address":"파주시 광탄면 서원길 333","zip":10830,"latitude":37.8199804,"longitude":126.8994851},
{"no":56,"club":"설악썬밸리 CC","hole":27,"Par":null,"yards":null,"homePage":"https://www.sunvalley.co.kr","tel1":"033-638-5362","tel2":"","zone":2,"province":"강원도","address":"고성군 죽왕면 순포로 188","zip":24750,"latitude":38.3125326,"longitude":128.503888},
{"no":57,"club":"설해원","hole":18,"Par":null,"yards":null,"homePage":"https://www.seolhaeone.com","tel1":"033-670-7700","tel2":"","zone":2,"province":"강원도","address":"양양군 손양면 공항로 230","zip":25042,"latitude":38.050899,"longitude":128.6691117},
{"no":58,"club":"성문안 CC","hole":18,"Par":null,"yards":null,"homePage":"https://www.oakvalley.co.kr","tel1":"033-769-7325","tel2":"","zone":2,"province":"강원도","address":"원주시 지정면 월송석화로 431","zip":26357,"latitude":37.3964994,"longitude":127.8338965},
{"no":59,"club":"세종에머슨 CC","hole":27,"Par":null,"yards":null,"homePage":"https://www.sejongemerson.co.kr","tel1":"044-862-4004","tel2":"","zone":3,"province":"세종특별자치시","address":"전의면 운주산로 1510","zip":30005,"latitude":36.6974815,"longitude":127.1783622},
{"no":60,"club":"송추 CC","hole":18,"Par":null,"yards":null,"homePage":"http://www.songchoo.co.kr","tel1":"031-871-9410","tel2":"031-871-9411~5","zone":1,"province":"경기도","address":"양주시 광적면 쇠장이길 435","zip":11424,"latitude":37.7963511,"longitude":126.9093155},
{"no":61,"club":"수원 CC","hole":36,"Par":null,"yards":null,"homePage":"http://www.suwoncc.co.kr","tel1":"031-281-6613","tel2":"","zone":1,"province":"경기도","address":"용인시 기흥구 중부대로 495","zip":16976,"latitude":37.2813346,"longitude":127.1203325},
{"no":62,"club":"스카이72 드림듄스코스","hole":18,"Par":null,"yards":null,"homePage":"https://www.sky72.com","tel1":"1544-7272","tel2":"1544-7002","zone":1,"province":"인천광역시","address":"중구 공항동로 392","zip":22379,"latitude":37.4972781,"longitude":126.4623108},
{"no":63,"club":"스카이72 레이크코스","hole":18,"Par":null,"yards":null,"homePage":"https://www.sky72.com","tel1":"1544-7272","tel2":"1544-7002","zone":1,"province":"인천광역시","address":"중구 공항동로 392","zip":22379,"latitude":37.4718185,"longitude":126.4796325},
{"no":64,"club":"스카이72 오션코스","hole":18,"Par":null,"yards":null,"homePage":"https://www.sky72.com","tel1":"1544-7272","tel2":"1544-7002","zone":1,"province":"인천광역시","address":"중구 공항동로 392","zip":22379,"latitude":37.4890933,"longitude":126.4643654},
{"no":65,"club":"스카이72 클래식코스","hole":18,"Par":null,"yards":null,"homePage":"https://www.sky72.com","tel1":"1544-7272","tel2":"1544-7002","zone":1,"province":"인천광역시","address":"중구 공항동로 392","zip":22379,"latitude":37.4806054,"longitude":126.4718863},
{"no":66,"club":"스카이72 하늘코스","hole":18,"Par":null,"yards":null,"homePage":"https://www.sky72.com","tel1":"1544-7272","tel2":"1544-7002","zone":1,"province":"인천광역시","address":"중구 공항동로 392","zip":22379,"latitude":37.4511923,"longitude":126.4831731},
{"no":67,"club":"신라 CC","hole":18,"Par":null,"yards":null,"homePage":"https://shilla.kmhleisure.com","tel1":"031-886-3030","tel2":"","zone":1,"province":"경기도","address":"여주시 북내면 신라그린길 84","zip":12612,"latitude":37.362376,"longitude":127.6967744},
{"no":68,"club":"썬밸리 CC","hole":18,"Par":null,"yards":null,"homePage":"https://www.sunvalley.co.kr","tel1":"043-881-5307","tel2":"","zone":3,"province":"충청북도","address":"충북 음성군 삼성면 범말길 49","zip":27645,"latitude":37.0399761,"longitude":127.4645623},
{"no":69,"club":"아난티 남해 GC","hole":18,"Par":null,"yards":null,"homePage":"https://ananti.kr","tel1":"1877-8448","tel2":"055-860-0100","zone":5,"province":"경상남도","address":"남해군 남면 남서대로 1179번길 40-109","zip":52433,"latitude":34.7773549,"longitude":127.8529304},
{"no":70,"club":"아난티 중앙 GC","hole":27,"Par":null,"yards":null,"homePage":"https://joongang.ananti.kr","tel1":"043-533-6666","tel2":"","zone":3,"province":"충청북도","address":"진천군 백곡면 배티로 818-105","zip":27821,"latitude":36.9384945,"longitude":127.3377664},
{"no":71,"club":"아난티 코드 GC","hole":27,"Par":null,"yards":null,"homePage":"https://ananti.kr","tel1":"1877-8448","tel2":"031-581-4000","zone":1,"province":"경기도","address":"가평군 설악면 유명로 961-34","zip":12472,"latitude":37.6198418,"longitude":127.4844247},
{"no":72,"club":"아시아나 CC","hole":36,"Par":null,"yards":null,"homePage":"https://www.asianacc.co.kr","tel1":"031-334-8800","tel2":"","zone":1,"province":"경기도","address":"용인시 처인구 양지면 양대로 290","zip":17155,"latitude":37.2548515,"longitude":127.2845551},
{"no":73,"club":"안성베네스트 GC","hole":36,"Par":null,"yards":null,"homePage":"https://www.golfsamsung.com","tel1":"031-670-0777","tel2":"","zone":1,"province":"경기도","address":"안성시 금광면 삼흥로 660","zip":17534,"latitude":37.0212467,"longitude":127.3866135},
{"no":74,"club":"안양 CC","hole":18,"Par":null,"yards":null,"homePage":"https://www.golfsamsung.com","tel1":"031-460-3301","tel2":"","zone":1,"province":"경기도","address":"군포시 군포로 364","zip":15877,"latitude":37.3384558,"longitude":126.9415951},
{"no":75,"club":"엘리시안 강촌 CC","hole":27,"Par":null,"yards":null,"homePage":"https://www.elysian.co.kr","tel1":"033-260-2000","tel2":"","zone":2,"province":"강원도","address":"춘천시 남산면 북한강변길 688","zip":24464,"latitude":37.8275176,"longitude":127.5800664},
{"no":76,"club":"엘리시안 제주 CC","hole":27,"Par":null,"yards":null,"homePage":"https://www.elysian.co.kr","tel1":"064-798-7000","tel2":"","zone":6,"province":"제주특별자치도","address":"제주시 애월읍 평화로 1738-116","zip":63041,"latitude":33.3736213,"longitude":126.3705377},
{"no":77,"club":"여주썬밸리 CC","hole":9,"Par":null,"yards":null,"homePage":"https://www.sunvalley.co.kr","tel1":"031-887-5300","tel2":"","zone":1,"province":"경기도","address":"여주시 강천면 강문로 872","zip":12617,"latitude":37.2689805,"longitude":127.7373464},
{"no":78,"club":"오크밸리 CC","hole":36,"Par":null,"yards":null,"homePage":"https://www.oakvalley.co.kr","tel1":"1588-7676","tel2":"","zone":2,"province":"강원도","address":"원주시 지정면 월송석화로 950","zip":26357,"latitude":37.4312507,"longitude":127.8179839},
{"no":79,"club":"오크크릭 GC","hole":9,"Par":null,"yards":null,"homePage":"https://www.oakvalley.co.kr","tel1":"1588-7676","tel2":"","zone":2,"province":"강원도","address":"원주시 지정면 오크밸리2길 58","zip":26357,"latitude":37.4160246,"longitude":127.8217715},
{"no":80,"club":"오크힐스 CC","hole":18,"Par":null,"yards":null,"homePage":"https://www.oakvalley.co.kr","tel1":"1588-7676","tel2":"","zone":2,"province":"강원도","address":"원주시 지정면 오크밸리2길 132","zip":26357,"latitude":37.4105117,"longitude":127.8163986},
{"no":81,"club":"올데이 골프앤리조트","hole":27,"Par":null,"yards":null,"homePage":"https://www.ilcc.co.kr","tel1":"043-851-5500","tel2":"","zone":3,"province":"충청북도","address":"충북 충주시 앙성면 비내길 189","zip":27301,"latitude":37.108861,"longitude":127.7906091},
{"no":82,"club":"올데이 로얄포레 CC","hole":18,"Par":null,"yards":null,"homePage":"https://www.ilcc.co.kr","tel1":"043-857-5000","tel2":"","zone":3,"province":"충청북도","address":"충주시 신니면 화치3길 35","zip":27454,"latitude":36.9955645,"longitude":127.6797625},
{"no":83,"club":"올데이 옥스필드 CC","hole":18,"Par":null,"yards":null,"homePage":"https://www.ilcc.co.kr","tel1":"033-340-7700","tel2":"","zone":2,"province":"강원도","address":"횡성군 서원면 경강로유현6길 28","zip":25200,"latitude":37.5238047,"longitude":127.8437794},
{"no":84,"club":"올데이 임페리얼레이크 CC","hole":18,"Par":null,"yards":null,"homePage":"https://www.ilcc.co.kr","tel1":"043-853-5555","tel2":"","zone":3,"province":"충청북도","address":"충주시 금가면 다래울길 52","zip":27444,"latitude":37.0286879,"longitude":127.8678198},
{"no":85,"club":"용원 GC","hole":27,"Par":null,"yards":null,"homePage":"https://ywcc.co.kr","tel1":"055-552-0080","tel2":"","zone":5,"province":"경상남도","address":"창원시 진해구 가주로 133","zip":51602,"latitude":35.1135551,"longitude":128.8232614},
{"no":86,"club":"우정힐스 CC","hole":18,"Par":null,"yards":null,"homePage":"https://whcc.kolon.co.kr","tel1":"041-559-6630","tel2":"041-557-2902~5","zone":3,"province":"충청남도","address":"천안시 동남구 목천읍 충절로 1048-68","zip":31234,"latitude":36.76585,"longitude":127.221425},
{"no":87,"club":"웰링턴 CC","hole":27,"Par":null,"yards":null,"homePage":"https://wellingtoncountryclub.com","tel1":"031-635-0128","tel2":"","zone":1,"province":"경기도","address":"이천시 모가면 사실로725번길 119-73","zip":17406,"latitude":37.1682815,"longitude":127.420148},
{"no":88,"club":"유성 CC","hole":18,"Par":null,"yards":null,"homePage":"https://www.yscc.co.kr","tel1":"042-822-7103","tel2":"","zone":3,"province":"대전광역시","address":"유성구 현충원로 200","zip":34153,"latitude":36.356075,"longitude":127.295595},
{"no":89,"club":"이포 CC","hole":18,"Par":null,"yards":null,"homePage":"https://ipocc.com","tel1":"031-886-8100","tel2":" 031-880-9000","zone":1,"province":"경기도","address":"여주시 금사면 장흥로 416","zip":12602,"latitude":37.38965,"longitude":127.4978521},
{"no":90,"club":"잭니클라우스 GC","hole":18,"Par":null,"yards":null,"homePage":"https://www.jacknicklausgolfclubkorea.com/","tel1":"032-850-8000","tel2":"","zone":1,"province":"인천광역시","address":"연수구 아카데미로 209","zip":22010,"latitude":37.3802636,"longitude":126.623612},
{"no":91,"club":"제일 CC","hole":27,"Par":null,"yards":null,"homePage":"https://www.jaeil-cc.co.kr","tel1":"031-400-2500","tel2":"","zone":1,"province":"경기도","address":"안산시 상록구 태마당로 28","zip":15308,"latitude":37.3274288,"longitude":126.866089},
{"no":92,"club":"중문 GC","hole":18,"Par":null,"yards":null,"homePage":"https://jungmungolf.visitkorea.or.kr","tel1":"064-735-7200","tel2":"","zone":6,"province":"제주특별자치도","address":"서귀포시 중문관광로72번길 60","zip":63535,"latitude":33.2513363,"longitude":126.4063166},
{"no":93,"club":"천룡 CC","hole":27,"Par":null,"yards":null,"homePage":"https://www.crcc.co.kr","tel1":"043-536-1001","tel2":"043-536-1002~9  ","zone":3,"province":"충청북도","address":"진천군 이월면 진안로 347-123","zip":27812,"latitude":36.9464887,"longitude":127.3877999},
{"no":94,"club":"천안상록 CC","hole":27,"Par":null,"yards":null,"homePage":"https://www.sangnokresort.co.kr","tel1":"041-560-9100","tel2":"041-560-9200","zone":3,"province":"충청남도","address":"천안시 동남구 수신면 수신로 576","zip":31251,"latitude":36.7424493,"longitude":127.2832089},
{"no":95,"club":"코리아 CC","hole":27,"Par":null,"yards":null,"homePage":"https://www.gakorea.com","tel1":"031-334-7111","tel2":"031-334-7112~5","zone":1,"province":"경기도","address":"용인시 처인구 이동읍 기흥단지로 579","zip":17087,"latitude":37.2201127,"longitude":127.1553322},
{"no":96,"club":"코리아 퍼블릭 GC","hole":9,"Par":null,"yards":null,"homePage":"https://www.gakorea.com","tel1":"031-286-9500","tel2":"031-286-9501~3","zone":1,"province":"경기도","address":"용인시 기흥구 기흥단지로 224","zip":17087,"latitude":37.2235731,"longitude":127.1234237},
{"no":97,"club":"코스카 CC","hole":27,"Par":null,"yards":null,"homePage":"https://koscacc.kr","tel1":"043-870-1000","tel2":"","zone":3,"province":"충청북도","address":"음성군 음성읍 동음로 318","zip":27686,"latitude":36.9304785,"longitude":127.6212171},
{"no":98,"club":"큐로 CC","hole":27,"Par":null,"yards":null,"homePage":"https://www.curocc.com","tel1":"031-799-6000","tel2":"","zone":1,"province":"경기도","address":"광주시 곤지암읍 오향길 180","zip":12718,"latitude":37.3849205,"longitude":127.3711282},
{"no":99,"club":"클럽 나인브릿지 CC","hole":18,"Par":null,"yards":null,"homePage":"https://www.ninebridges.co.kr","tel1":"064-793-9999","tel2":"","zone":6,"province":"제주특별자치도","address":"서귀포시 안덕면 광평로 34-156","zip":63524,"latitude":33.3403726,"longitude":126.4042502},
{"no":100,"club":"클럽센추리21 CC","hole":36,"Par":null,"yards":null,"homePage":"https://www.century21cc.co.kr","tel1":"033-733-1000","tel2":"","zone":2,"province":"강원도","address":"원주시 문막읍 궁말길 193","zip":26496,"latitude":37.2832492,"longitude":127.8519763},
{"no":101,"club":"킹즈락 CC","hole":27,"Par":null,"yards":null,"homePage":"https://www.kingsrockcc.com","tel1":"043-640-9000","tel2":"","zone":3,"province":"충청북도","address":"제천시 내토로 7길 136","zip":27189,"latitude":37.1383715,"longitude":128.178448},
{"no":102,"club":"태광 CC","hole":36,"Par":null,"yards":null,"homePage":"https://www.taekwangcc.co.kr","tel1":"1877-6001","tel2":"","zone":1,"province":"경기도","address":"용인시 기흥구 흥덕4로 77","zip":16947,"latitude":37.2837389,"longitude":127.0866273},
{"no":103,"club":"태기산 CC","hole":10,"Par":null,"yards":null,"homePage":"https://phoenixhnr.co.kr/pyeongchang/index","tel1":"1577-0755","tel2":"033-330-3100","zone":2,"province":"강원도","address":"평창군 봉평면 태기로 174","zip":25307,"latitude":37.5846617,"longitude":128.3201346},
{"no":104,"club":"트리니티 클럽","hole":18,"Par":null,"yards":null,"homePage":"https://www.trinityclub.co.kr:446/main.asp","tel1":"031-887-7900","tel2":"","zone":1,"province":"경기도","address":"여주시 가남읍 가남로 320-21","zip":12661,"latitude":37.2068328,"longitude":127.5739291},
{"no":105,"club":"티클라우드 CC","hole":18,"Par":null,"yards":null,"homePage":"http://www.teecloud.co.kr","tel1":"031-869-7777","tel2":"","zone":1,"province":"경기도","address":"동두천시 평화로 3202","zip":11306,"latitude":37.9659506,"longitude":127.08904},
{"no":106,"club":"파인리즈 Golf&Resort","hole":27,"Par":null,"yards":null,"homePage":"https://www.pineridge.co.kr","tel1":"1577-6399","tel2":"033-630-6300","zone":2,"province":"강원도","address":"고성군 토성면 잼버리동로 267","zip":24763,"latitude":38.2484766,"longitude":128.5425542},
{"no":107,"club":"파인스톤 CC","hole":18,"Par":null,"yards":null,"homePage":"https://www.pinestonecc.com","tel1":"041-350-0000","tel2":"041-350-0112","zone":3,"province":"충청남도","address":"당진시 송산면 무수들길 90","zip":31712,"latitude":36.9626622,"longitude":126.667666},
{"no":108,"club":"페럼 클럽","hole":18,"Par":null,"yards":null,"homePage":"https://www.ferrumclub.com","tel1":"031-887-7000","tel2":"","zone":1,"province":"경기도","address":"여주시 점동면 점동로 181","zip":12665,"latitude":37.2074473,"longitude":127.6847889},
{"no":109,"club":"프린세스 GC","hole":18,"Par":null,"yards":null,"homePage":"https://www.princessgc.co.kr","tel1":"041-854-6300","tel2":"","zone":3,"province":"충청남도","address":"공주시 정안면 방자들길 81-50","zip":32511,"latitude":36.6529328,"longitude":127.1120136},
{"no":110,"club":"플라자 CC 제주","hole":9,"Par":null,"yards":null,"homePage":"https://www.plazacc.co.kr","tel1":"064-727-9000","tel2":"","zone":6,"province":"제주특별자치도","address":"제주시 명림로 575-107","zip":63330,"latitude":33.4504202,"longitude":126.6322502},
{"no":111,"club":"플라자CC 설악","hole":18,"Par":null,"yards":null,"homePage":"https://www.plazacc.co.kr","tel1":"033-630-5511","tel2":"","zone":2,"province":"강원도","address":"속초시 미시령로 2983번길 111","zip":24801,"latitude":38.2096299,"longitude":128.5343918},
{"no":112,"club":"플라자CC 용인 CC","hole":36,"Par":null,"yards":null,"homePage":"https://www.plazacc.co.kr","tel1":"031-333-1144","tel2":"031-332-1122","zone":1,"province":"경기도","address":"용인시 처인구 남사면 봉무로 153번길 79","zip":17119,"latitude":37.1333354,"longitude":127.1407274},
{"no":113,"club":"핀크스 GC","hole":27,"Par":null,"yards":null,"homePage":"https://www.thepinx.co.kr","tel1":"064-792-5200","tel2":"","zone":6,"province":"제주특별자치도","address":"서귀포시 안덕면 산록남로 863","zip":63525,"latitude":33.313666,"longitude":126.3899885},
{"no":114,"club":"한성 CC","hole":27,"Par":null,"yards":null,"homePage":"https://www.hansung-cc.co.kr","tel1":"031-284-3831","tel2":"031-284-3832~6","zone":1,"province":"경기도","address":"용인시 기흥구 구교동로 151","zip":16901,"latitude":37.3106312,"longitude":127.1179836},
{"no":115,"club":"한양 CC","hole":18,"Par":null,"yards":null,"homePage":"http://www.hanyangcc.com","tel1":"031-960-6900","tel2":"031-969-0810","zone":1,"province":"경기도","address":"고양시 덕양구 고양대로1643번길 164","zip":10293,"latitude":37.6572142,"longitude":126.8551443},
{"no":116,"club":"한양파인 CC","hole":9,"Par":null,"yards":null,"homePage":"http://www.hypine.co.kr/","tel1":"031-930-9100","tel2":"","zone":1,"province":"경기도","address":"고양시 덕양구 고양대로 1591","zip":10293,"latitude":37.6552638,"longitude":126.866307},
{"no":117,"club":"해비치 CC 제주","hole":36,"Par":null,"yards":null,"homePage":"https://www.haevichi.com","tel1":"064-766-6220","tel2":"","zone":6,"province":"제주특별자치도","address":"서귀포시 남원읍 원님로399번길 319","zip":63616,"latitude":33.3607122,"longitude":126.7169522},
{"no":118,"club":"해비치CC 서울 CC","hole":18,"Par":null,"yards":null,"homePage":"https://www.haevichi.com","tel1":"031-579-3000","tel2":"","zone":1,"province":"경기도","address":"남양주시 화도읍 재재기로190번길 160","zip":12200,"latitude":37.6142045,"longitude":127.2973077},
{"no":119,"club":"해슬리 나인브릿지 CC","hole":18,"Par":null,"yards":null,"homePage":"https://haesley.com:447/index.asp","tel1":"031-887-9900","tel2":"031-887-9929","zone":1,"province":"경기도","address":"여주시 명품1로 76","zip":12646,"latitude":37.2512287,"longitude":127.6186488},
{"no":120,"club":"화산 CC","hole":18,"Par":null,"yards":null,"homePage":"http://www.hwasancc.com","tel1":"031-329-7114","tel2":"","zone":1,"province":"경기도","address":"용인시 처인구 이동읍 화산로 239","zip":17135,"latitude":37.1541723,"longitude":127.2340322},
{"no":121,"club":"화성상록 GC","hole":27,"Par":null,"yards":null,"homePage":"https://www.sangnokresort.co.kr","tel1":"031-371-0100","tel2":"","zone":1,"province":"경기도","address":"화성시 풀무골로 60번길 80","zip":18465,"latitude":37.1966185,"longitude":127.136136},
{"no":122,"club":"화순 CC","hole":27,"Par":null,"yards":null,"homePage":"https://www.hwasuncc.co.kr","tel1":"061-373-9955","tel2":"","zone":2,"province":"전라남도","address":"화순군 도곡면 천태로 1000-151","zip":58154,"latitude":34.972223,"longitude":126.909359},
{"no":123,"club":"휘닉스 CC","hole":18,"Par":null,"yards":null,"homePage":"https://phoenixhnr.co.kr/pyeongchang/index","tel1":"1577-0755","tel2":"033-330-3001","zone":2,"province":"강원도","address":"평창군 봉평면 태기로 174","zip":25307,"latitude":37.5877479,"longitude":128.3373115},
{"no":124,"club":"휘슬링락 CC","hole":27,"Par":null,"yards":null,"homePage":"https://www.whistlingrockcc.com","tel1":"070-8121-0100","tel2":"","zone":2,"province":"강원도","address":"춘천시 남산면 동촌로 501","zip":24465,"latitude":37.7679236,"longitude":127.6768254},
{"no":125,"club":"힐마루 Golf&Resort","hole":36,"Par":null,"yards":null,"homePage":"https://www.hillmaru.com","tel1":"055-520-8000","tel2":"","zone":5,"province":"경상남도","address":"창녕군 장마면 영산계성로 469-195","zip":50337,"latitude":35.4945018,"longitude":128.4958907}]